ONEWEB-0277             
1 48995U 21060AE  26111.88560693  .00000146  00000+0  34782-3 0  9997
2 48995  87.9068 239.9696 0001902  96.6765 263.4582 13.16593847232150
ONEWEB-0278             
1 48996U 21060AF  26112.10409626 -.00000034  00000+0 -12260-3 0  9997
2 48996  87.9075 239.9118 0001571 107.0529 253.0774 13.16592526232314
ONEWEB-0279             
1 48997U 21060AG  26112.11201050  .00000114  00000+0  26344-3 0  9995
2 48997  87.9076 239.9095 0002092  97.7325 262.4044 13.16595197232241
ONEWEB-0280             
1 48998U 21060AH  26112.27903672  .00000133  00000+0  31395-3 0  9995
2 48998  87.9077 239.8808 0001654  91.4662 268.6659 13.16593993232200
ONEWEB-0281             
1 48999U 21060AJ  26112.28460396  .00000089  00000+0  19809-3 0  9994
2 48999  87.9078 239.8739 0001813 102.5533 257.5801 13.16598617232274
ONEWEB-0282             
1 49000U 21060AK  26112.31467348  .00000057  00000+0  11580-3 0  9999
2 49000  87.9074 239.8781 0001868  96.6203 263.5141 13.16593834232256
ONEWEB-0283             
1 49001U 21060AL  26112.30358504  .00000065  00000+0  13630-3 0  9999
2 49001  87.9075 239.8799 0001999  98.3387 261.7971 13.16594908232269
ONEWEB-0284             
1 49002U 21060AM  26112.29725327 -.00000082  00000+0 -24825-3 0  9998
2 49002  87.9073 239.8730 0001546  95.8143 264.3164 13.16595009232247
ONEWEB-0285             
1 49075U 21075A   26112.25465833 -.00000402  00000+0 -11524-2 0  9990
2 49075  87.9008   1.7741 0001751  77.2132 282.9192 13.12442430227878
ONEWEB-0286             
1 49076U 21075B   26112.16050092  .00000072  00000+0  16577-3 0  9993
2 49076  87.8999   1.8156 0001635  86.4490 273.6826 13.12441808227215
ONEWEB-0287             
1 49077U 21075C   26112.20168978  .00000052  00000+0  10118-3 0  9995
2 49077  87.9183  16.9894 0001527  90.2062 269.9244 13.17648126226258
ONEWEB-0288             
1 49078U 21075D   26112.13691959  .00000451  00000+0  12168-2 0  9997
2 49078  87.8998   1.7918 0001564  81.3397 278.7908 13.12445824227839
ONEWEB-0289             
1 49079U 21075E   26112.01256049  .00000038  00000+0  65073-4 0  9998
2 49079  87.9187  17.0408 0001720  65.6331 294.4980 13.17647337226801
ONEWEB-0290             
1 49080U 21075F   26112.21351971  .00000013  00000+0 -27378-6 0  9994
2 49080  87.9196  16.9708 0001821  62.1383 297.9933 13.17651591226246
ONEWEB-0291             
1 49081U 21075G   26111.97050608  .00000052  00000+0  10124-3 0  9990
2 49081  87.9192  17.0276 0001444  77.6570 282.4723 13.17647834226202
ONEWEB-0293             
1 49082U 21075H   26112.22363534  .00000019  00000+0  14581-4 0  9990
2 49082  87.9186  16.9842 0001784  75.1782 284.9547 13.17648538226267
