[{"OBJECT_NAME":"ONEWEB-0277","OBJECT_ID":"2021-060AE","EPOCH":"2026-04-21T21:15:16.438752","MEAN_MOTION":13.16593847,"ECCENTRICITY":0.0001902,"INCLINATION":87.9068,"RA_OF_ASC_NODE":239.9696,"ARG_OF_PERICENTER":96.6765,"MEAN_ANOMALY":263.4582,"EPHEMERIS_TYPE":0,"CLASSIFICATION_TYPE":"U","NORAD_CAT_ID":48995,"ELEMENT_SET_NO":999,"REV_AT_EPOCH":23215,"BSTAR":0.00034782000000000004,"MEAN_MOTION_DOT":1.46e-06,"MEAN_MOTION_DDOT":0.0},{"OBJECT_NAME":"ONEWEB-0278","OBJECT_ID":"2021-060AF","EPOCH":"2026-04-22T02:29:53.916864","MEAN_MOTION":13.16592526,"ECCENTRICITY":0.0001571,"INCLINATION":87.9075,"RA_OF_ASC_NODE":239.9118,"ARG_OF_PERICENTER":107.0529,"MEAN_ANOMALY":253.0774,"EPHEMERIS_TYPE":0,"CLASSIFICATION_TYPE":"U","NORAD_CAT_ID":48996,"ELEMENT_SET_NO":999,"REV_AT_EPOCH":23231,"BSTAR":-0.0001226,"MEAN_MOTION_DOT":-3.4e-07,"MEAN_MOTION_DDOT":0.0},{"OBJECT_NAME":"ONEWEB-0279","OBJECT_ID":"2021-060AG","EPOCH":"2026-04-22T02:41:17.707200","MEAN_MOTION":13.16595197,"ECCENTRICITY":0.0002092,"INCLINATION":87.9076,"RA_OF_ASC_NODE":239.9095,"ARG_OF_PERICENTER":97.7325,"MEAN_ANOMALY":262.4044,"EPHEMERIS_TYPE":0,"CLASSIFICATION_TYPE":"U","NORAD_CAT_ID":48997,"ELEMENT_SET_NO":999,"REV_AT_EPOCH":23224,"BSTAR":0.00026344000000000004,"MEAN_MOTION_DOT":1.14e-06,"MEAN_MOTION_DDOT":0.0},{"OBJECT_NAME":"ONEWEB-0280","OBJECT_ID":"2021-060AH","EPOCH":"2026-04-22T06:41:48.772608","MEAN_MOTION":13.16593993,"ECCENTRICITY":0.0001654,"INCLINATION":87.9077,"RA_OF_ASC_NODE":239.8808,"ARG_OF_PERICENTER":91.4662,"MEAN_ANOMALY":268.6659,"EPHEMERIS_TYPE":0,"CLASSIFICATION_TYPE":"U","NORAD_CAT_ID":48998,"ELEMENT_SET_NO":999,"REV_AT_EPOCH":23220,"BSTAR":0.00031395,"MEAN_MOTION_DOT":1.33e-06,"MEAN_MOTION_DDOT":0.0},{"OBJECT_NAME":"ONEWEB-0281","OBJECT_ID":"2021-060AJ","EPOCH":"2026-04-22T06:49:49.782144","MEAN_MOTION":13.16598617,"ECCENTRICITY":0.0001813,"INCLINATION":87.9078,"RA_OF_ASC_NODE":239.8739,"ARG_OF_PERICENTER":102.5533,"MEAN_ANOMALY":257.5801,"EPHEMERIS_TYPE":0,"CLASSIFICATION_TYPE":"U","NORAD_CAT_ID":48999,"ELEMENT_SET_NO":999,"REV_AT_EPOCH":23227,"BSTAR":0.00019809,"MEAN_MOTION_DOT":8.9e-07,"MEAN_MOTION_DDOT":0.0},{"OBJECT_NAME":"ONEWEB-0282","OBJECT_ID":"2021-060AK","EPOCH":"2026-04-22T07:33:07.788672","MEAN_MOTION":13.16593834,"ECCENTRICITY":0.0001868,"INCLINATION":87.9074,"RA_OF_ASC_NODE":239.8781,"ARG_OF_PERICENTER":96.6203,"MEAN_ANOMALY":263.5141,"EPHEMERIS_TYPE":0,"CLASSIFICATION_TYPE":"U","NORAD_CAT_ID":49000,"ELEMENT_SET_NO":999,"REV_AT_EPOCH":23225,"BSTAR":0.0001158,"MEAN_MOTION_DOT":5.7e-07,"MEAN_MOTION_DDOT":0.0},{"OBJECT_NAME":"ONEWEB-0283","OBJECT_ID":"2021-060AL","EPOCH":"2026-04-22T07:17:09.747456","MEAN_MOTION":13.16594908,"ECCENTRICITY":0.0001999,"INCLINATION":87.9075,"RA_OF_ASC_NODE":239.8799,"ARG_OF_PERICENTER":98.3387,"MEAN_ANOMALY":261.7971,"EPHEMERIS_TYPE":0,"CLASSIFICATION_TYPE":"U","NORAD_CAT_ID":49001,"ELEMENT_SET_NO":999,"REV_AT_EPOCH":23226,"BSTAR":0.0001363,"MEAN_MOTION_DOT":6.5e-07,"MEAN_MOTION_DDOT":0.0},{"OBJECT_NAME":"ONEWEB-0284","OBJECT_ID":"2021-060AM","EPOCH":"2026-04-22T07:08:02.682528","MEAN_MOTION":13.16595009,"ECCENTRICITY":0.0001546,"INCLINATION":87.9073,"RA_OF_ASC_NODE":239.873,"ARG_OF_PERICENTER":95.8143,"MEAN_ANOMALY":264.3164,"EPHEMERIS_TYPE":0,"CLASSIFICATION_TYPE":"U","NORAD_CAT_ID":49002,"ELEMENT_SET_NO":999,"REV_AT_EPOCH":23224,"BSTAR":-0.00024825,"MEAN_MOTION_DOT":-8.2e-07,"MEAN_MOTION_DDOT":0.0},{"OBJECT_NAME":"ONEWEB-0285","OBJECT_ID":"2021-075A","EPOCH":"2026-04-22T06:06:42.479712","MEAN_MOTION":13.1244243,"ECCENTRICITY":0.0001751,"INCLINATION":87.9008,"RA_OF_ASC_NODE":1.7741,"ARG_OF_PERICENTER":77.2132,"MEAN_ANOMALY":282.9192,"EPHEMERIS_TYPE":0,"CLASSIFICATION_TYPE":"U","NORAD_CAT_ID":49075,"ELEMENT_SET_NO":999,"REV_AT_EPOCH":22787,"BSTAR":-0.0011524,"MEAN_MOTION_DOT":-4.02e-06,"MEAN_MOTION_DDOT":0.0},{"OBJECT_NAME":"ONEWEB-0286","OBJECT_ID":"2021-075B","EPOCH":"2026-04-22T03:51:07.279488","MEAN_MOTION":13.12441808,"ECCENTRICITY":0.0001635,"INCLINATION":87.8999,"RA_OF_ASC_NODE":1.8156,"ARG_OF_PERICENTER":86.449,"MEAN_ANOMALY":273.6826,"EPHEMERIS_TYPE":0,"CLASSIFICATION_TYPE":"U","NORAD_CAT_ID":49076,"ELEMENT_SET_NO":999,"REV_AT_EPOCH":22721,"BSTAR":0.00016577,"MEAN_MOTION_DOT":7.2e-07,"MEAN_MOTION_DDOT":0.0},{"OBJECT_NAME":"ONEWEB-0287","OBJECT_ID":"2021-075C","EPOCH":"2026-04-22T04:50:25.996992","MEAN_MOTION":13.17648126,"ECCENTRICITY":0.0001527,"INCLINATION":87.9183,"RA_OF_ASC_NODE":16.9894,"ARG_OF_PERICENTER":90.2062,"MEAN_ANOMALY":269.9244,"EPHEMERIS_TYPE":0,"CLASSIFICATION_TYPE":"U","NORAD_CAT_ID":49077,"ELEMENT_SET_NO":999,"REV_AT_EPOCH":22625,"BSTAR":0.00010118,"MEAN_MOTION_DOT":5.2e-07,"MEAN_MOTION_DDOT":0.0},{"OBJECT_NAME":"ONEWEB-0288","OBJECT_ID":"2021-075D","EPOCH":"2026-04-22T03:17:09.852576","MEAN_MOTION":13.12445824,"ECCENTRICITY":0.0001564,"INCLINATION":87.8998,"RA_OF_ASC_NODE":1.7918,"ARG_OF_PERICENTER":81.3397,"MEAN_ANOMALY":278.7908,"EPHEMERIS_TYPE":0,"CLASSIFICATION_TYPE":"U","NORAD_CAT_ID":49078,"ELEMENT_SET_NO":999,"REV_AT_EPOCH":22783,"BSTAR":0.0012168,"MEAN_MOTION_DOT":4.51e-06,"MEAN_MOTION_DDOT":0.0},{"OBJECT_NAME":"ONEWEB-0289","OBJECT_ID":"2021-075E","EPOCH":"2026-04-22T00:18:05.226336","MEAN_MOTION":13.17647337,"ECCENTRICITY":0.000172,"INCLINATION":87.9187,"RA_OF_ASC_NODE":17.0408,"ARG_OF_PERICENTER":65.6331,"MEAN_ANOMALY":294.498,"EPHEMERIS_TYPE":0,"CLASSIFICATION_TYPE":"U","NORAD_CAT_ID":49079,"ELEMENT_SET_NO":999,"REV_AT_EPOCH":22680,"BSTAR":6.5073e-05,"MEAN_MOTION_DOT":3.8e-07,"MEAN_MOTION_DDOT":0.0},{"OBJECT_NAME":"ONEWEB-0290","OBJECT_ID":"2021-075F","EPOCH":"2026-04-22T05:07:28.102944","MEAN_MOTION":13.17651591,"ECCENTRICITY":0.0001821,"INCLINATION":87.9196,"RA_OF_ASC_NODE":16.9708,"ARG_OF_PERICENTER":62.1383,"MEAN_ANOMALY":297.9933,"EPHEMERIS_TYPE":0,"CLASSIFICATION_TYPE":"U","NORAD_CAT_ID":49080,"ELEMENT_SET_NO":999,"REV_AT_EPOCH":22624,"BSTAR":-2.7378e-07,"MEAN_MOTION_DOT":1.3e-07,"MEAN_MOTION_DDOT":0.0},{"OBJECT_NAME":"ONEWEB-0291","OBJECT_ID":"2021-075G","EPOCH":"2026-04-21T23:17:31.725312","MEAN_MOTION":13.17647834,"ECCENTRICITY":0.0001444,"INCLINATION":87.9192,"RA_OF_ASC_NODE":17.0276,"ARG_OF_PERICENTER":77.657,"MEAN_ANOMALY":282.4723,"EPHEMERIS_TYPE":0,"CLASSIFICATION_TYPE":"U","NORAD_CAT_ID":49081,"ELEMENT_SET_NO":999,"REV_AT_EPOCH":22620,"BSTAR":0.00010124,"MEAN_MOTION_DOT":5.2e-07,"MEAN_MOTION_DDOT":0.0},{"OBJECT_NAME":"ONEWEB-0293","OBJECT_ID":"2021-075H","EPOCH":"2026-04-22T05:22:02.093376","MEAN_MOTION":13.17648538,"ECCENTRICITY":0.0001784,"INCLINATION":87.9186,"RA_OF_ASC_NODE":16.9842,"ARG_OF_PERICENTER":75.1782,"MEAN_ANOMALY":284.9547,"EPHEMERIS_TYPE":0,"CLASSIFICATION_TYPE":"U","NORAD_CAT_ID":49082,"ELEMENT_SET_NO":999,"REV_AT_EPOCH":22626,"BSTAR":1.4581e-05,"MEAN_MOTION_DOT":1.9e-07,"MEAN_MOTION_DDOT":0.0}]